[{"OBJECT_NAME":"STARLINK-5668","OBJECT_ID":"2023-013V","EPOCH":"2026-03-09T01:07:14.318400","MEAN_MOTION":15.02534619,"ECCENTRICITY":0.00011645,"INCLINATION":43.0045,"RA_OF_ASC_NODE":303.7464,"ARG_OF_PERICENTER":265.9049,"MEAN_ANOMALY":94.1661,"EPHEMERIS_TYPE":0,"CLASSIFICATION_TYPE":"U","NORAD_CAT_ID":55350,"ELEMENT_SET_NO":999,"REV_AT_EPOCH":17161,"BSTAR":-2.663132e-6,"MEAN_MOTION_DOT":-2.4e-6,"MEAN_MOTION_DDOT":0},{"OBJECT_NAME":"NAXING 1","OBJECT_ID":"2004-012B","EPOCH":"2026-03-09T22:31:20.183520","MEAN_MOTION":15.05443462,"ECCENTRICITY":0.00121665,"INCLINATION":98.0152,"RA_OF_ASC_NODE":92.9199,"ARG_OF_PERICENTER":69.4128,"MEAN_ANOMALY":290.8402,"EPHEMERIS_TYPE":0,"CLASSIFICATION_TYPE":"U","NORAD_CAT_ID":28221,"ELEMENT_SET_NO":999,"REV_AT_EPOCH":19231,"BSTAR":0.00025838798,"MEAN_MOTION_DOT":3.649e-5,"MEAN_MOTION_DDOT":0}]
